[{"OBJECT_NAME":"TDRS 3","OBJECT_ID":"1988-091B","EPOCH":"2026-04-25T11:39:48.574368","MEAN_MOTION":1.00275272,"ECCENTRICITY":0.0041033,"INCLINATION":12.6422,"RA_OF_ASC_NODE":341.3539,"ARG_OF_PERICENTER":355.9255,"MEAN_ANOMALY":2.3192,"EPHEMERIS_TYPE":0,"CLASSIFICATION_TYPE":"U","NORAD_CAT_ID":19548,"ELEMENT_SET_NO":999,"REV_AT_EPOCH":12485,"BSTAR":0,"MEAN_MOTION_DOT":-3.13e-6,"MEAN_MOTION_DDOT":0},{"OBJECT_NAME":"FLTSATCOM 8 (USA 46)","OBJECT_ID":"1989-077A","EPOCH":"2026-04-25T22:04:40.216224","MEAN_MOTION":1.00281093,"ECCENTRICITY":0.0006861,"INCLINATION":12.4365,"RA_OF_ASC_NODE":351.4799,"ARG_OF_PERICENTER":17.8446,"MEAN_ANOMALY":301.2736,"EPHEMERIS_TYPE":0,"CLASSIFICATION_TYPE":"U","NORAD_CAT_ID":20253,"ELEMENT_SET_NO":999,"REV_AT_EPOCH":26003,"BSTAR":0,"MEAN_MOTION_DOT":-3.8e-6,"MEAN_MOTION_DDOT":0},{"OBJECT_NAME":"SKYNET 4C","OBJECT_ID":"1990-079A","EPOCH":"2026-04-25T18:54:10.855296","MEAN_MOTION":1.00269294,"ECCENTRICITY":0.00026486,"INCLINATION":13.3573,"RA_OF_ASC_NODE":350.1753,"ARG_OF_PERICENTER":29.7222,"MEAN_ANOMALY":150.7967,"EPHEMERIS_TYPE":0,"CLASSIFICATION_TYPE":"U","NORAD_CAT_ID":20776,"ELEMENT_SET_NO":999,"REV_AT_EPOCH":13036,"BSTAR":0,"MEAN_MOTION_DOT":1.13e-6,"MEAN_MOTION_DDOT":0},{"OBJECT_NAME":"TDRS 5","OBJECT_ID":"1991-054B","EPOCH":"2026-04-25T09:18:34.216128","MEAN_MOTION":1.00270227,"ECCENTRICITY":0.00080923,"INCLINATION":14.0786,"RA_OF_ASC_NODE":354.1737,"ARG_OF_PERICENTER":285.1594,"MEAN_ANOMALY":266.0118,"EPHEMERIS_TYPE":0,"CLASSIFICATION_TYPE":"U","NORAD_CAT_ID":21639,"ELEMENT_SET_NO":999,"REV_AT_EPOCH":12718,"BSTAR":0,"MEAN_MOTION_DOT":7.1e-7,"MEAN_MOTION_DDOT":0},{"OBJECT_NAME":"TDRS 6","OBJECT_ID":"1993-003B","EPOCH":"2026-04-25T03:42:58.683168","MEAN_MOTION":1.00274136,"ECCENTRICITY":0.00059115,"INCLINATION":14.1825,"RA_OF_ASC_NODE":357.4542,"ARG_OF_PERICENTER":179.4928,"MEAN_ANOMALY":46.2104,"EPHEMERIS_TYPE":0,"CLASSIFICATION_TYPE":"U","NORAD_CAT_ID":22314,"ELEMENT_SET_NO":999,"REV_AT_EPOCH":12187,"BSTAR":0,"MEAN_MOTION_DOT":-3.08e-6,"MEAN_MOTION_DDOT":0},{"OBJECT_NAME":"UFO 2 (USA 95)","OBJECT_ID":"1993-056A","EPOCH":"2026-04-25T20:35:23.648640","MEAN_MOTION":1.0027826,"ECCENTRICITY":0.00085887,"INCLINATION":11.8774,"RA_OF_ASC_NODE":3.8414,"ARG_OF_PERICENTER":355.0052,"MEAN_ANOMALY":192.6118,"EPHEMERIS_TYPE":0,"CLASSIFICATION_TYPE":"U","NORAD_CAT_ID":22787,"ELEMENT_SET_NO":999,"REV_AT_EPOCH":11802,"BSTAR":0,"MEAN_MOTION_DOT":1.13e-6,"MEAN_MOTION_DDOT":0},{"OBJECT_NAME":"USA 99 (MILSTAR-1 1)","OBJECT_ID":"1994-009A","EPOCH":"2026-04-25T08:17:18.283200","MEAN_MOTION":1.00273239,"ECCENTRICITY":0.00036023,"INCLINATION":17.5398,"RA_OF_ASC_NODE":28.2842,"ARG_OF_PERICENTER":350.2797,"MEAN_ANOMALY":229.1378,"EPHEMERIS_TYPE":0,"CLASSIFICATION_TYPE":"U","NORAD_CAT_ID":22988,"ELEMENT_SET_NO":999,"REV_AT_EPOCH":3242,"BSTAR":0,"MEAN_MOTION_DOT":-2.09e-6,"MEAN_MOTION_DDOT":0},{"OBJECT_NAME":"UFO 4 (USA 108)","OBJECT_ID":"1995-003A","EPOCH":"2026-04-25T13:41:38.491296","MEAN_MOTION":1.00273021,"ECCENTRICITY":0.00034604,"INCLINATION":9.7,"RA_OF_ASC_NODE":13.4044,"ARG_OF_PERICENTER":20.1097,"MEAN_ANOMALY":197.7707,"EPHEMERIS_TYPE":0,"CLASSIFICATION_TYPE":"U","NORAD_CAT_ID":23467,"ELEMENT_SET_NO":999,"REV_AT_EPOCH":11442,"BSTAR":0,"MEAN_MOTION_DOT":-3.3e-7,"MEAN_MOTION_DDOT":0},{"OBJECT_NAME":"TDRS 7","OBJECT_ID":"1995-035B","EPOCH":"2026-04-25T22:48:44.647200","MEAN_MOTION":1.00278334,"ECCENTRICITY":0.00109059,"INCLINATION":13.3994,"RA_OF_ASC_NODE":348.5502,"ARG_OF_PERICENTER":64.5191,"MEAN_ANOMALY":232.1375,"EPHEMERIS_TYPE":0,"CLASSIFICATION_TYPE":"U","NORAD_CAT_ID":23613,"ELEMENT_SET_NO":999,"REV_AT_EPOCH":11272,"BSTAR":0,"MEAN_MOTION_DOT":-2.53e-6,"MEAN_MOTION_DDOT":0},{"OBJECT_NAME":"USA 115 (MILSTAR-1 2)","OBJECT_ID":"1995-060A","EPOCH":"2026-04-25T08:19:16.633920","MEAN_MOTION":1.00366105,"ECCENTRICITY":8.756e-5,"INCLINATION":14.0553,"RA_OF_ASC_NODE":4.1458,"ARG_OF_PERICENTER":343.044,"MEAN_ANOMALY":238.8657,"EPHEMERIS_TYPE":0,"CLASSIFICATION_TYPE":"U","NORAD_CAT_ID":23712,"ELEMENT_SET_NO":999,"REV_AT_EPOCH":3235,"BSTAR":0,"MEAN_MOTION_DOT":-9.5e-7,"MEAN_MOTION_DDOT":0},{"OBJECT_NAME":"INMARSAT 3-F1","OBJECT_ID":"1996-020A","EPOCH":"2026-04-25T16:50:13.047360","MEAN_MOTION":0.9999525,"ECCENTRICITY":0.00040318,"INCLINATION":10.4946,"RA_OF_ASC_NODE":47.1095,"ARG_OF_PERICENTER":332.8944,"MEAN_ANOMALY":45.1712,"EPHEMERIS_TYPE":0,"CLASSIFICATION_TYPE":"U","NORAD_CAT_ID":23839,"ELEMENT_SET_NO":999,"REV_AT_EPOCH":10973,"BSTAR":0,"MEAN_MOTION_DOT":-2.92e-6,"MEAN_MOTION_DDOT":0},{"OBJECT_NAME":"INMARSAT 3-F2","OBJECT_ID":"1996-053A","EPOCH":"2026-04-25T15:01:28.066656","MEAN_MOTION":0.99993852,"ECCENTRICITY":0.00066778,"INCLINATION":9.7402,"RA_OF_ASC_NODE":54.4635,"ARG_OF_PERICENTER":344.731,"MEAN_ANOMALY":240.3823,"EPHEMERIS_TYPE":0,"CLASSIFICATION_TYPE":"U","NORAD_CAT_ID":24307,"ELEMENT_SET_NO":999,"REV_AT_EPOCH":10839,"BSTAR":0,"MEAN_MOTION_DOT":9.5e-7,"MEAN_MOTION_DDOT":0},{"OBJECT_NAME":"INMARSAT 3-F3","OBJECT_ID":"1996-070A","EPOCH":"2026-04-25T19:12:39.083904","MEAN_MOTION":0.99978552,"ECCENTRICITY":0.00047664,"INCLINATION":10.2072,"RA_OF_ASC_NODE":50.1448,"ARG_OF_PERICENTER":322.3401,"MEAN_ANOMALY":227.7928,"EPHEMERIS_TYPE":0,"CLASSIFICATION_TYPE":"U","NORAD_CAT_ID":24674,"ELEMENT_SET_NO":999,"REV_AT_EPOCH":10738,"BSTAR":0,"MEAN_MOTION_DOT":-2.53e-6,"MEAN_MOTION_DDOT":0},{"OBJECT_NAME":"AMC-3","OBJECT_ID":"1997-050A","EPOCH":"2026-04-25T20:06:41.402880","MEAN_MOTION":1.00271597,"ECCENTRICITY":0.00030637,"INCLINATION":8.0204,"RA_OF_ASC_NODE":64.6743,"ARG_OF_PERICENTER":318.6,"MEAN_ANOMALY":60.2457,"EPHEMERIS_TYPE":0,"CLASSIFICATION_TYPE":"U","NORAD_CAT_ID":24936,"ELEMENT_SET_NO":999,"REV_AT_EPOCH":5191,"BSTAR":0,"MEAN_MOTION_DOT":-2.71e-6,"MEAN_MOTION_DDOT":0},{"OBJECT_NAME":"USA 134","OBJECT_ID":"1997-065A","EPOCH":"2026-04-25T09:10:18.515136","MEAN_MOTION":1.00276211,"ECCENTRICITY":0.00061023,"INCLINATION":12.7237,"RA_OF_ASC_NODE":22.1194,"ARG_OF_PERICENTER":323.5162,"MEAN_ANOMALY":253.0049,"EPHEMERIS_TYPE":0,"CLASSIFICATION_TYPE":"U","NORAD_CAT_ID":25019,"ELEMENT_SET_NO":999,"REV_AT_EPOCH":3242,"BSTAR":0,"MEAN_MOTION_DOT":-7.4e-7,"MEAN_MOTION_DDOT":0},{"OBJECT_NAME":"INMARSAT 3-F5","OBJECT_ID":"1998-006B","EPOCH":"2026-04-25T07:10:23.702880","MEAN_MOTION":1.00272239,"ECCENTRICITY":0.0004949,"INCLINATION":9.5784,"RA_OF_ASC_NODE":53.7761,"ARG_OF_PERICENTER":338.6371,"MEAN_ANOMALY":234.5182,"EPHEMERIS_TYPE":0,"CLASSIFICATION_TYPE":"U","NORAD_CAT_ID":25153,"ELEMENT_SET_NO":999,"REV_AT_EPOCH":10336,"BSTAR":0,"MEAN_MOTION_DOT":-3.0e-6,"MEAN_MOTION_DDOT":0},{"OBJECT_NAME":"ABS-6","OBJECT_ID":"1999-053A","EPOCH":"2026-04-25T20:48:51.668352","MEAN_MOTION":1.00271032,"ECCENTRICITY":0.00030602,"INCLINATION":0.0492,"RA_OF_ASC_NODE":89.483,"ARG_OF_PERICENTER":323.2349,"MEAN_ANOMALY":272.3906,"EPHEMERIS_TYPE":0,"CLASSIFICATION_TYPE":"U","NORAD_CAT_ID":25924,"ELEMENT_SET_NO":999,"REV_AT_EPOCH":9731,"BSTAR":0,"MEAN_MOTION_DOT":-1.33e-6,"MEAN_MOTION_DDOT":0}]
