TDRS 3                  
1 19548U 88091B   26115.48597887 -.00000313  00000+0  00000+0 0  9990
2 19548  12.6422 341.3539 0041033 355.9255   2.3192  1.00275272124852
FLTSATCOM 8 (USA 46)    
1 20253U 89077A   26115.91990991 -.00000380  00000+0  00000+0 0  9995
2 20253  12.4365 351.4799 0006861  17.8446 301.2736  1.00281093260031
SKYNET 4C               
1 20776U 90079A   26115.78762564  .00000113  00000+0  00000+0 0  9990
2 20776  13.3573 350.1753 0002648  29.7222 150.7967  1.00269294130365
TDRS 5                  
1 21639U 91054B   26115.38789602  .00000071  00000+0  00000+0 0  9994
2 21639  14.0786 354.1737 0008092 285.1594 266.0118  1.00270227127186
TDRS 6                  
1 22314U 93003B   26115.15484587 -.00000308  00000+0  00000+0 0  9994
2 22314  14.1825 357.4542 0005911 179.4928  46.2104  1.00274136121871
UFO 2 (USA 95)          
1 22787U 93056A   26115.85791260  .00000113  00000+0  00000+0 0  9995
2 22787  11.8774   3.8414 0008588 355.0052 192.6118  1.00278260118021
USA 99 (MILSTAR-1 1)    
1 22988U 94009A   26115.34535050 -.00000209  00000+0  00000+0 0  9991
2 22988  17.5398  28.2842 0003602 350.2797 229.1378  1.00273239 32424
UFO 4 (USA 108)         
1 23467U 95003A   26115.57058439 -.00000033  00000+0  00000+0 0  9990
2 23467   9.7000  13.4044 0003460  20.1097 197.7707  1.00273021114424
TDRS 7                  
1 23613U 95035B   26115.95051675 -.00000253  00000+0  00000+0 0  9999
2 23613  13.3994 348.5502 0010905  64.5191 232.1375  1.00278334112728
USA 115 (MILSTAR-1 2)   
1 23712U 95060A   26115.34672030 -.00000095  00000+0  00000+0 0  9998
2 23712  14.0553   4.1458 0000875 343.0440 238.8657  1.00366105 32359
INMARSAT 3-F1           
1 23839U 96020A   26115.70153990 -.00000292  00000+0  00000+0 0  9993
2 23839  10.4946  47.1095 0004031 332.8944  45.1712  0.99995250109736
INMARSAT 3-F2           
1 24307U 96053A   26115.62601929  .00000095  00000+0  00000+0 0  9991
2 24307   9.7402  54.4635 0006677 344.7310 240.3823  0.99993852108392
INMARSAT 3-F3           
1 24674U 96070A   26115.80045236 -.00000253  00000+0  00000+0 0  9997
2 24674  10.2072  50.1448 0004766 322.3401 227.7928  0.99978552107387
AMC-3                   
1 24936U 97050A   26115.83797920 -.00000271  00000+0  00000+0 0  9994
2 24936   8.0204  64.6743 0003063 318.6000  60.2457  1.00271597 51912
USA 134                 
1 25019U 97065A   26115.38215874 -.00000074  00000+0  00000+0 0  9997
2 25019  12.7237  22.1194 0006102 323.5162 253.0049  1.00276211 32425
INMARSAT 3-F5           
1 25153U 98006B   26115.29888545 -.00000300  00000+0  00000+0 0  9995
2 25153   9.5784  53.7761 0004949 338.6371 234.5182  1.00272239103361
ABS-6                   
1 25924U 99053A   26115.86726468 -.00000133  00000+0  00000+0 0  9996
2 25924   0.0492  89.4830 0003060 323.2349 272.3906  1.00271032 97311
